{
    "satellites": [
        {
            "name": "starlink320",
            "title": "Starlink-320 (G10-51)",
            "tle": [
                "1 70786C 25257AC  25320.76993056 -.01705800  00000+0 -49604-2 0  3201",
                "2 70786  53.1534  30.0797 0001129  43.8403  15.5923 15.93896784    18"
            ],
            "stdMag": 5,
            "noradId": "70786",
            "tleUrl": "http://celestrak.org/NORAD/elements/supplemental/sup-gp.php?FILE=starlink&FORMAT=tle",
            "launchDate": "2025-11-09T08:10:10.000Z",
            "active": true,
            "batch": [
                {
                    "noradId": "70786",
                    "tle": [
                        "1 70786C 25257AC  25320.76993056 -.01705800  00000+0 -49604-2 0  3201",
                        "2 70786  53.1534  30.0797 0001129  43.8403  15.5923 15.93896784    18"
                    ]
                },
                {
                    "noradId": "70785",
                    "tle": [
                        "1 70785C 25257AB  25320.77131944 -.01682800  00000+0 -49361-2 0  3205",
                        "2 70785  53.1536  30.0851 0001028  45.2147  16.0554 15.93706342    15"
                    ]
                },
                {
                    "noradId": "70788",
                    "tle": [
                        "1 70788C 25257AE  25320.76645833 -.01696100  00000+0 -49432-2 0  3201",
                        "2 70788  53.1539  30.1019 0001118  45.8191 351.5862 15.93844001    17"
                    ]
                },
                {
                    "noradId": "70784",
                    "tle": [
                        "1 70784C 25257AA  25320.76784722 -.01671100  00000+0 -49126-2 0  3201",
                        "2 70784  53.1537  30.1078 0000897  67.0038 332.1112 15.93651814    16"
                    ]
                },
                {
                    "noradId": "70782",
                    "tle": [
                        "1 70782C 25257Y   25320.76437500 -.01646200  00000+0 -48873-2 0  3209",
                        "2 70782  53.1538  30.1405 0000816  67.3948 304.5169 15.93436700    13"
                    ]
                },
                {
                    "noradId": "70780",
                    "tle": [
                        "1 70780C 25257W   25320.76645833 -.01640800  00000+0 -48609-2 0  3204",
                        "2 70780  53.1540  30.1260 0001193  71.7881 314.0974 15.93471346    12"
                    ]
                },
                {
                    "noradId": "70779",
                    "tle": [
                        "1 70779C 25257V   25320.76229167 -.01639100  00000+0 -48778-2 0  3208",
                        "2 70779  53.1541  30.1556 0001011  47.5410 310.4239 15.93383660    12"
                    ]
                },
                {
                    "noradId": "70776",
                    "tle": [
                        "1 70776C 25257S   25320.76229167 -.01601100  00000+0 -47978-2 0  3205",
                        "2 70776  53.1539  30.1724 0000727  71.3848 278.5514 15.93209916    17"
                    ]
                },
                {
                    "noradId": "70781",
                    "tle": [
                        "1 70781C 25257X   25320.76298611 -.01658700  00000+0 -48970-2 0  3202",
                        "2 70781  53.1538  30.1397 0001026  41.6036 326.1723 15.93556656    18"
                    ]
                },
                {
                    "noradId": "70778",
                    "tle": [
                        "1 70778C 25257U   25320.76368056 -.01632300  00000+0 -48711-2 0  3200",
                        "2 70778  53.1539  30.1523 0000826  67.4022 296.6741 15.93322324    18"
                    ]
                },
                {
                    "noradId": "70775",
                    "tle": [
                        "1 70775C 25257R   25320.77131944 -.01594000  00000+0 -47957-2 0  3207",
                        "2 70775  53.1541  30.1302 0000877  63.9224 336.1181 15.93125099    12"
                    ]
                },
                {
                    "noradId": "70787",
                    "tle": [
                        "1 70787C 25257AD  25320.76854167 -.01688300  00000+0 -49369-2 0  3204",
                        "2 70787  53.1539  30.0958 0001049  49.4953 357.5680 15.93772786    10"
                    ]
                },
                {
                    "noradId": "70774",
                    "tle": [
                        "1 70774C 25257Q   25320.76506944 -.01581300  00000+0 -47660-2 0  3201",
                        "2 70774  53.1539  30.1669 0001012  49.1558 312.6554 15.93077871    19"
                    ]
                },
                {
                    "noradId": "70777",
                    "tle": [
                        "1 70777C 25257T   25320.76368056 -.01627800  00000+0 -48703-2 0  3209",
                        "2 70777  53.1538  30.1560 0000835  69.3622 293.0673 15.93268152    17"
                    ]
                },
                {
                    "noradId": "70771",
                    "tle": [
                        "1 70771C 25257M   25320.76645833 -.01378500  00000+0 -31511-2 0  3203",
                        "2 70771  53.1546  29.9989 0001103  52.4657  35.3729 15.98058583    10"
                    ]
                },
                {
                    "noradId": "70772",
                    "tle": [
                        "1 70772C 25257N   25320.76368056 -.01568900  00000+0 -47406-2 0  3208",
                        "2 70772  53.1540  30.1786 0000914  64.2633 287.4107 15.93015959    13"
                    ]
                },
                {
                    "noradId": "70773",
                    "tle": [
                        "1 70773C 25257P   25320.77131944 -.01551700  00000+0 -47072-2 0  3203",
                        "2 70773  53.1539  30.1444 0001128  49.3000 343.9455 15.92921657    17"
                    ]
                },
                {
                    "noradId": "70783",
                    "tle": [
                        "1 70783C 25257Z   25320.76854167 -.01661700  00000+0 -48992-2 0  3206",
                        "2 70783  53.1537  30.1085 0001001  40.1781   0.8297 15.93586130    19"
                    ]
                },
                {
                    "noradId": "70764",
                    "tle": [
                        "1 70764C 25257E   25320.76368056 -.01446100  00000+0 -44450-2 0  3202",
                        "2 70764  53.1539  30.2068 0000802  63.8269 274.5360 15.92557782    14"
                    ]
                },
                {
                    "noradId": "70766",
                    "tle": [
                        "1 70766C 25257G   25320.76784722 -.01478600  00000+0 -45330-2 0  3204",
                        "2 70766  53.1540  30.1802 0001000  51.8628 312.9098 15.92640636    16"
                    ]
                },
                {
                    "noradId": "70765",
                    "tle": [
                        "1 70765C 25257F   25320.76437500 -.01407600  00000+0 -43511-2 0  3203",
                        "2 70765  53.1540  30.2112 0000900  63.7093 274.7882 15.92407413    16"
                    ]
                },
                {
                    "noradId": "70761",
                    "tle": [
                        "1 70761C 25257B   25320.76715278 -.01340500  00000+0 -41687-2 0  3207",
                        "2 70761  53.1541  30.2097 0000741  64.7139 283.6852 15.92221410    17"
                    ]
                },
                {
                    "noradId": "70763",
                    "tle": [
                        "1 70763C 25257D   25320.76645833 -.01433000  00000+0 -44179-2 0  3205",
                        "2 70763  53.1537  30.1959 0000716  69.2635 283.3109 15.92485695    12"
                    ]
                },
                {
                    "noradId": "70768",
                    "tle": [
                        "1 70768C 25257J   25320.76576389 -.01519900  00000+0 -46320-2 0  3203",
                        "2 70768  53.1540  30.1816 0000724  63.3550 293.8692 15.92799379    13"
                    ]
                },
                {
                    "noradId": "70762",
                    "tle": [
                        "1 70762C 25257C   25320.76437500 -.01358400  00000+0 -42104-2 0  3200",
                        "2 70762  53.1538  30.2197 0000797  64.7325 269.6804 15.92304658    10"
                    ]
                },
                {
                    "noradId": "70769",
                    "tle": [
                        "1 70769C 25257K   25320.77131944 -.01534700  00000+0 -46686-2 0  3209",
                        "2 70769  53.1539  30.1489 0000879  67.2834 323.7234 15.92849837    17"
                    ]
                },
                {
                    "noradId": "70760",
                    "tle": [
                        "1 70760C 25257A   25320.77340278 -.01338100  00000+0 -41745-2 0  3209",
                        "2 70760  53.1545  30.1809 0000821  66.2382 316.7277 15.92157327    10"
                    ]
                },
                {
                    "noradId": "70770",
                    "tle": [
                        "1 70770C 25257L   25320.77131944 -.01709300  00000+0 -49607-2 0  3207",
                        "2 70770  53.1538  30.0700 0001121  43.0068  25.9843 15.93939251    13"
                    ]
                }
            ]
        }
    ],
    "config": {}
}